[{"OBJECT_NAME":"STARLINK-32647","OBJECT_ID":"2024-229J","EPOCH":"2026-03-09T21:47:24.710496","MEAN_MOTION":15.27594824,"ECCENTRICITY":0.0001627,"INCLINATION":42.9992,"RA_OF_ASC_NODE":269.5754,"ARG_OF_PERICENTER":275.0124,"MEAN_ANOMALY":85.0542,"EPHEMERIS_TYPE":0,"CLASSIFICATION_TYPE":"U","NORAD_CAT_ID":62200,"ELEMENT_SET_NO":999,"REV_AT_EPOCH":7059,"BSTAR":0.00089964588,"MEAN_MOTION_DOT":0.00024588,"MEAN_MOTION_DDOT":0},{"OBJECT_NAME":"TRANSPORTER-1 OBJECT AA","OBJECT_ID":"2021-006AA","EPOCH":"2026-03-09T22:58:14.761920","MEAN_MOTION":15.29982294,"ECCENTRICITY":0.00086604,"INCLINATION":97.2381,"RA_OF_ASC_NODE":112.457,"ARG_OF_PERICENTER":185.709,"MEAN_ANOMALY":174.4054,"EPHEMERIS_TYPE":0,"CLASSIFICATION_TYPE":"U","NORAD_CAT_ID":47437,"ELEMENT_SET_NO":999,"REV_AT_EPOCH":28414,"BSTAR":0.0002197941,"MEAN_MOTION_DOT":6.312e-5,"MEAN_MOTION_DDOT":0}]
